CCSDS_OMM_VERS = 2.0
CREATION_DATE  = 
ORIGINATOR     = 

OBJECT_NAME    = IDEFIX & ARIANE 42P R/B
OBJECT_ID      = 2002-021B
CENTER_NAME    = EARTH
REF_FRAME      = TEME
TIME_SYSTEM    = UTC
MEAN_ELEMENT_THEORY = SGP/SGP4

EPOCH          = 2025-12-21T09:26:46.444704
MEAN_MOTION    = 14.30956032
ECCENTRICITY   = .0012845
INCLINATION    = 98.5799
RA_OF_ASC_NODE = 289.9725
ARG_OF_PERICENTER = 60.3454
MEAN_ANOMALY   = 299.9007

EPHEMERIS_TYPE = 0
CLASSIFICATION_TYPE = U
NORAD_CAT_ID   = 27422
ELEMENT_SET_NO = 999
REV_AT_EPOCH   = 23282
BSTAR          = .10257855E-3
MEAN_MOTION_DOT = .226E-5
MEAN_MOTION_DDOT = 0

CCSDS_OMM_VERS = 2.0
CREATION_DATE  = 
ORIGINATOR     = 

OBJECT_NAME    = AQUA
OBJECT_ID      = 2002-022A
CENTER_NAME    = EARTH
REF_FRAME      = TEME
TIME_SYSTEM    = UTC
MEAN_ELEMENT_THEORY = SGP/SGP4

EPOCH          = 2025-12-20T21:44:41.124192
MEAN_MOTION    = 14.61819722
ECCENTRICITY   = .0001418
INCLINATION    = 98.4047
RA_OF_ASC_NODE = 315.9181
ARG_OF_PERICENTER = 110.6839
MEAN_ANOMALY   = 325.0971

EPHEMERIS_TYPE = 0
CLASSIFICATION_TYPE = U
NORAD_CAT_ID   = 27424
ELEMENT_SET_NO = 999
REV_AT_EPOCH   = 25722
BSTAR          = .13306E-3
MEAN_MOTION_DOT = .615E-5
MEAN_MOTION_DDOT = 0

CCSDS_OMM_VERS = 2.0
CREATION_DATE  = 
ORIGINATOR     = 

OBJECT_NAME    = CZ-4B R/B
OBJECT_ID      = 2002-024C
CENTER_NAME    = EARTH
REF_FRAME      = TEME
TIME_SYSTEM    = UTC
MEAN_ELEMENT_THEORY = SGP/SGP4

EPOCH          = 2025-12-21T13:42:56.029248
MEAN_MOTION    = 14.14529547
ECCENTRICITY   = .00492799
INCLINATION    = 98.8986
RA_OF_ASC_NODE = 44.3120
ARG_OF_PERICENTER = 244.3474
MEAN_ANOMALY   = 244.8697

EPHEMERIS_TYPE = 0
CLASSIFICATION_TYPE = U
NORAD_CAT_ID   = 27432
ELEMENT_SET_NO = 999
REV_AT_EPOCH   = 21819
BSTAR          = .4789195E-4
MEAN_MOTION_DOT = .48E-6
MEAN_MOTION_DDOT = 0

CCSDS_OMM_VERS = 2.0
CREATION_DATE  = 
ORIGINATOR     = 

OBJECT_NAME    = MIDORI II (ADEOS-II)
OBJECT_ID      = 2002-056A
CENTER_NAME    = EARTH
REF_FRAME      = TEME
TIME_SYSTEM    = UTC
MEAN_ELEMENT_THEORY = SGP/SGP4

EPOCH          = 2025-12-21T07:50:05.974656
MEAN_MOTION    = 14.29210918
ECCENTRICITY   = .00006305
INCLINATION    = 98.7650
RA_OF_ASC_NODE = 308.3283
ARG_OF_PERICENTER = 149.9768
MEAN_ANOMALY   = 210.1450

EPHEMERIS_TYPE = 0
CLASSIFICATION_TYPE = U
NORAD_CAT_ID   = 27597
ELEMENT_SET_NO = 999
REV_AT_EPOCH   = 19910
BSTAR          = .94190857E-4
MEAN_MOTION_DOT = .194E-5
MEAN_MOTION_DDOT = 0

CCSDS_OMM_VERS = 2.0
CREATION_DATE  = 
ORIGINATOR     = 

OBJECT_NAME    = H-2A R/B
OBJECT_ID      = 2002-056E
CENTER_NAME    = EARTH
REF_FRAME      = TEME
TIME_SYSTEM    = UTC
MEAN_ELEMENT_THEORY = SGP/SGP4

EPOCH          = 2025-12-21T11:36:46.172736
MEAN_MOTION    = 14.33683164
ECCENTRICITY   = .00710888
INCLINATION    = 98.3078
RA_OF_ASC_NODE = 313.8928
ARG_OF_PERICENTER = 35.4396
MEAN_ANOMALY   = 74.9771

EPHEMERIS_TYPE = 0
CLASSIFICATION_TYPE = U
NORAD_CAT_ID   = 27601
ELEMENT_SET_NO = 999
REV_AT_EPOCH   = 20290
BSTAR          = .12062458E-3
MEAN_MOTION_DOT = .303E-5
MEAN_MOTION_DDOT = 0

CCSDS_OMM_VERS = 2.0
CREATION_DATE  = 
ORIGINATOR     = 

OBJECT_NAME    = CZ-4B R/B
OBJECT_ID      = 2003-049C
CENTER_NAME    = EARTH
REF_FRAME      = TEME
TIME_SYSTEM    = UTC
MEAN_ELEMENT_THEORY = SGP/SGP4

EPOCH          = 2025-12-21T12:51:58.951872
MEAN_MOTION    = 14.54917185
ECCENTRICITY   = .00493342
INCLINATION    = 98.6793
RA_OF_ASC_NODE = 342.4325
ARG_OF_PERICENTER = 109.7282
MEAN_ANOMALY   = 250.9245

EPHEMERIS_TYPE = 0
CLASSIFICATION_TYPE = U
NORAD_CAT_ID   = 28059
ELEMENT_SET_NO = 999
REV_AT_EPOCH   = 17523
BSTAR          = .87254795E-4
MEAN_MOTION_DOT = .33E-5
MEAN_MOTION_DDOT = 0

CCSDS_OMM_VERS = 2.0
CREATION_DATE  = 
ORIGINATOR     = 

OBJECT_NAME    = CZ-2C R/B
OBJECT_ID      = 2004-012C
CENTER_NAME    = EARTH
REF_FRAME      = TEME
TIME_SYSTEM    = UTC
MEAN_ELEMENT_THEORY = SGP/SGP4

EPOCH          = 2025-12-21T14:45:41.702400
MEAN_MOTION    = 15.56129394
ECCENTRICITY   = .00165611
INCLINATION    = 97.7404
RA_OF_ASC_NODE = 48.9729
ARG_OF_PERICENTER = 235.5992
MEAN_ANOMALY   = 124.3697

EPHEMERIS_TYPE = 0
CLASSIFICATION_TYPE = U
NORAD_CAT_ID   = 28222
ELEMENT_SET_NO = 999
REV_AT_EPOCH   = 19210
BSTAR          = .47214461E-3
MEAN_MOTION_DOT = .33169E-3
MEAN_MOTION_DDOT = 0

CCSDS_OMM_VERS = 2.0
CREATION_DATE  = 
ORIGINATOR     = 

OBJECT_NAME    = SL-16 R/B
OBJECT_ID      = 2004-021B
CENTER_NAME    = EARTH
REF_FRAME      = TEME
TIME_SYSTEM    = UTC
MEAN_ELEMENT_THEORY = SGP/SGP4

EPOCH          = 2025-12-21T12:45:14.910048
MEAN_MOTION    = 14.14578762
ECCENTRICITY   = .00048195
INCLINATION    = 71.0005
RA_OF_ASC_NODE = 36.5158
ARG_OF_PERICENTER = 185.4426
MEAN_ANOMALY   = 174.6645

EPHEMERIS_TYPE = 0
CLASSIFICATION_TYPE = U
NORAD_CAT_ID   = 28353
ELEMENT_SET_NO = 999
REV_AT_EPOCH   = 11178
BSTAR          = .18646402E-4
MEAN_MOTION_DOT = -.12E-6
MEAN_MOTION_DDOT = 0

CCSDS_OMM_VERS = 2.0
CREATION_DATE  = 
ORIGINATOR     = 

OBJECT_NAME    = CZ-4B R/B
OBJECT_ID      = 2004-035C
CENTER_NAME    = EARTH
REF_FRAME      = TEME
TIME_SYSTEM    = UTC
MEAN_ELEMENT_THEORY = SGP/SGP4

EPOCH          = 2025-12-21T14:26:46.141152
MEAN_MOTION    = 15.27503268
ECCENTRICITY   = .00316139
INCLINATION    = 97.3591
RA_OF_ASC_NODE = 25.8279
ARG_OF_PERICENTER = 244.4586
MEAN_ANOMALY   = 115.3383

EPHEMERIS_TYPE = 0
CLASSIFICATION_TYPE = U
NORAD_CAT_ID   = 28415
ELEMENT_SET_NO = 999
REV_AT_EPOCH   = 16798
BSTAR          = .2366694E-3
MEAN_MOTION_DOT = .6385E-4
MEAN_MOTION_DDOT = 0

CCSDS_OMM_VERS = 2.0
CREATION_DATE  = 
ORIGINATOR     = 

OBJECT_NAME    = CZ-2C R/B
OBJECT_ID      = 2004-046B
CENTER_NAME    = EARTH
REF_FRAME      = TEME
TIME_SYSTEM    = UTC
MEAN_ELEMENT_THEORY = SGP/SGP4

EPOCH          = 2025-12-21T12:19:28.284384
MEAN_MOTION    = 14.26945320
ECCENTRICITY   = .0140085
INCLINATION    = 98.1996
RA_OF_ASC_NODE = 270.3462
ARG_OF_PERICENTER = 26.5075
MEAN_ANOMALY   = 334.3184

EPHEMERIS_TYPE = 0
CLASSIFICATION_TYPE = U
NORAD_CAT_ID   = 28480
ELEMENT_SET_NO = 999
REV_AT_EPOCH   = 9735
BSTAR          = .86761063E-4
MEAN_MOTION_DOT = .193E-5
MEAN_MOTION_DDOT = 0

CCSDS_OMM_VERS = 2.0
CREATION_DATE  = 
ORIGINATOR     = 

OBJECT_NAME    = ARIANE 5 R/B
OBJECT_ID      = 2004-049H
CENTER_NAME    = EARTH
REF_FRAME      = TEME
TIME_SYSTEM    = UTC
MEAN_ELEMENT_THEORY = SGP/SGP4

EPOCH          = 2025-12-21T09:53:13.635168
MEAN_MOTION    = 14.85031989
ECCENTRICITY   = .00833805
INCLINATION    = 98.2526
RA_OF_ASC_NODE = 156.0045
ARG_OF_PERICENTER = 244.4443
MEAN_ANOMALY   = 114.8134

EPHEMERIS_TYPE = 0
CLASSIFICATION_TYPE = U
NORAD_CAT_ID   = 28499
ELEMENT_SET_NO = 999
REV_AT_EPOCH   = 13417
BSTAR          = .1124475E-3
MEAN_MOTION_DOT = .955E-5
MEAN_MOTION_DDOT = 0

CCSDS_OMM_VERS = 2.0
CREATION_DATE  = 
ORIGINATOR     = 

OBJECT_NAME    = CZ-2D R/B
OBJECT_ID      = 2005-024B
CENTER_NAME    = EARTH
REF_FRAME      = TEME
TIME_SYSTEM    = UTC
MEAN_ELEMENT_THEORY = SGP/SGP4

EPOCH          = 2025-12-21T11:34:46.816320
MEAN_MOTION    = 15.53656468
ECCENTRICITY   = .00040391
INCLINATION    = 97.3622
RA_OF_ASC_NODE = 3.1611
ARG_OF_PERICENTER = 333.0811
MEAN_ANOMALY   = 27.0232

EPHEMERIS_TYPE = 0
CLASSIFICATION_TYPE = U
NORAD_CAT_ID   = 28738
ELEMENT_SET_NO = 999
REV_AT_EPOCH   = 12761
BSTAR          = .39828978E-3
MEAN_MOTION_DOT = .25381E-3
MEAN_MOTION_DDOT = 0

