IDEFIX & ARIANE 42P R/B 
1 27422U 02021B   25355.39359311  .00000226  00000+0  10258-3 0  9994
2 27422  98.5799 289.9725 0012845  60.3454 299.9007 14.30956032232826
AQUA                    
1 27424U 02022A   25354.90603153  .00000615  00000+0  13306-3 0  9998
2 27424  98.4047 315.9181 0001418 110.6839 325.0971 14.61819722257229
CZ-4B R/B               
1 27432U 02024C   25355.57148182  .00000048  00000+0  47892-4 0  9997
2 27432  98.8986  44.3120 0049279 244.3474 244.8697 14.14529547218194
MIDORI II (ADEOS-II)    
1 27597U 02056A   25355.32645804  .00000194  00000+0  94191-4 0  9996
2 27597  98.7650 308.3283 0000630 149.9768 210.1450 14.29210918199107
H-2A R/B                
1 27601U 02056E   25355.48386774  .00000303  00000+0  12062-3 0  9995
2 27601  98.3078 313.8928 0071088  35.4396  74.9771 14.33683164202908
CZ-4B R/B               
1 28059U 03049C   25355.53609898  .00000330  00000+0  87255-4 0  9994
2 28059  98.6793 342.4325 0049334 109.7282 250.9245 14.54917185175233
CZ-2C R/B               
1 28222U 04012C   25355.61506600  .00033169  00000+0  47214-3 0  9999
2 28222  97.7404  48.9729 0016561 235.5992 124.3697 15.56129394192102
SL-16 R/B               
1 28353U 04021B   25355.53142257 -.00000012  00000+0  18646-4 0  9999
2 28353  71.0005  36.5158 0004819 185.4426 174.6645 14.14578762111782
CZ-4B R/B               
1 28415U 04035C   25355.60192293  .00006385  00000+0  23667-3 0  9992
2 28415  97.3591  25.8279 0031613 244.4586 115.3383 15.27503268167980
CZ-2C R/B               
1 28480U 04046B   25355.51352181  .00000193  00000+0  86761-4 0  9996
2 28480  98.1996 270.3462 0140085  26.5075 334.3184 14.26945320 97359
ARIANE 5 R/B            
1 28499U 04049H   25355.41196337  .00000955  00000+0  11245-3 0  9997
2 28499  98.2526 156.0045 0083380 244.4443 114.8134 14.85031989134170
CZ-2D R/B               
1 28738U 05024B   25355.48248630  .00025381  00000+0  39829-3 0  9996
2 28738  97.3622   3.1611 0004039 333.0811  27.0232 15.53656468127618
